satname,norad_id,inclination_deg,eccentricity,mean_motion_rev_per_day,perigee_km,apogee_km,l1,l2
STARLINK-1404,45686,53.1579,0.0001717,15.38770029,448.57299463846084,450.9176894347165,1 45686U 20035AF  26102.89513363  .00053823  00000+0  13840-2 0  9996,2 45686  53.1579 249.8340 0001717 350.6574   9.4398 15.38770029324225
STARLINK-1413,45689,53.1583,0.0001354,15.30573001,473.1737887462641,475.02937495422884,1 45689U 20035AJ  26102.79588876  .00033346  00000+0  11200-2 0  9995,2 45689  53.1583 251.1513 0001354  58.8811 301.2323 15.30573001324111
STARLINK-1417,45693,53.0498,0.0003496,15.14336237,520.5817881881021,525.407059279577,1 45693U 20035AN  26102.60757511  .00017384  00000+0  95157-3 0  9992,2 45693  53.0498 260.3718 0003496 340.9771  19.1090 15.14336237324035
STARLINK-1420,45695,53.0468,0.0005562,15.61051677,380.8565616360793,388.3794503047202,1 45695U 20035AQ  26102.82316217  .00081797  00000+0  95024-3 0  9994,2 45695  53.0468 216.8645 0005562 304.5374  55.5113 15.61051677324674
STARLINK-1422,45696,53.1566,8.44e-05,15.30719731,473.0853934544275,474.24197741012813,1 45696U 20035AR  26102.80270831  .00025642  00000+0  86097-3 0  9991,2 45696  53.1566 251.1146 0000844  62.6302 297.4785 15.30719731324191
STARLINK-1351,45697,53.0469,0.0006164,15.58901578,386.6624901038613,395.0072786429155,1 45697U 20035AS  26102.70434660  .00043781  00000+0  55755-3 0  9994,2 45697  53.0469 217.0144 0006164 310.4418  49.6055 15.58901578324666
STARLINK-1400,45700,53.0458,0.000512,15.57236028,392.19236642984197,399.12873512183614,1 45700U 20035AV  26102.78075827  .00078841  00000+0  10590-2 0  9995,2 45700  53.0458 218.4611 0005120 260.9428  99.1004 15.57236028324646
STARLINK-1403,45701,53.1567,0.0001058,15.2974094,475.8608528900768,477.31131229435414,1 45701U 20035AW  26102.64640630  .00021145  00000+0  73428-3 0  9996,2 45701  53.1567 238.9729 0001058  78.0053 282.1067 15.29740940324346
STARLINK-1407,45703,53.0303,0.0003041,15.66241754,367.61784467162124,371.7218607994546,1 45703U 20035AY  26102.83129739  .00033034  00000+0  31817-3 0  9997,2 45703  53.0303 148.5025 0003041 261.1186  98.9484 15.66241754325635
STARLINK-1411,45706,53.0397,0.0005637,15.70433107,353.8613212043829,361.45525681321124,1 45706U 20035BB  26102.90078337  .00095578  00000+0  76089-3 0  9996,2 45706  53.0397 173.2614 0005637 348.0590  12.0293 15.70433107325283
STARLINK-1423,45710,53.0444,0.0006703,15.59849314,383.5574002240937,392.62820789941816,1 45710U 20035BF  26102.82263790  .00078590  00000+0  95630-3 0  9999,2 45710  53.0444 216.6952 0006703 283.4877  76.5388 15.59849314324662
STARLINK-1433,45711,53.0448,0.0006246,15.62232243,376.9886495161427,385.4324264605975,1 45711U 20035BG  26102.80054178  .00088992  00000+0  98617-3 0  9991,2 45711  53.0448 215.3157 0006246 279.8785  80.1522 15.62232243324683
STARLINK-1434,45712,53.0495,0.0002637,15.30168032,473.5032676553428,477.1177758783233,1 45712U 20035BH  26102.70346956  .00036226  00000+0  12304-2 0  9990,2 45712  53.0495 222.0933 0002637 264.1867  95.8831 15.30168032324596
STARLINK-1465,45731,53.0473,0.0005666,15.5566006,396.39396951734307,404.07522020864053,1 45731U 20038B   26102.30876628  .00062224  00000+0  88925-3 0  9994,2 45731  53.0473  61.1844 0005666  61.2621 298.8958 15.55660060321604
STARLINK-1471,45735,53.0476,0.0001788,15.5088707,412.9203654218554,415.3492818259847,1 45735U 20038F   26102.82303672  .00015769  00000+0  27533-3 0  9999,2 45735  53.0476 338.2520 0001788  57.1597 302.9584 15.50887070322821
STARLINK-1480,45741,53.0515,0.0002995,15.57830083,391.9101477307313,395.96662088593075,1 45741U 20038M   26102.58078655  .00071819  00000+0  94520-3 0  9997,2 45741  53.0515  53.8958 0002995 127.6479 232.4804 15.57830083321741
STARLINK-1500,45744,53.0372,0.0003374,15.36699093,453.57257559609934,458.1841691693844,1 45744U 20038Q   26101.93284644  .00018437  00000+0  51623-3 0  9999,2 45744  53.0372  36.5885 0003374  46.3563 313.7718 15.36699093321923
STARLINK-1504,45746,53.0233,8.3e-05,15.55643198,399.7209674934611,400.84618530914395,1 45746U 20038S   26102.82844126  .00020155  00000+0  29459-3 0  9999,2 45746  53.0233 337.1850 0000830  81.2217 278.8887 15.55643198322825
STARLINK-1506,45747,53.078,0.000368,15.27148103,481.8172632997348,486.86804832641246,1 45747U 20038T   26102.83417792  .00026472  00000+0  99064-3 0  9993,2 45747  53.0780  44.3219 0003680  27.7430 332.3765 15.27148103321901
STARLINK-1464,45751,53.0495,0.0003492,15.48357647,419.15567998161623,423.9045675008374,1 45751U 20038X   26102.25027490  .00054138  00000+0  10074-2 0  9999,2 45751  53.0495  44.5781 0003492  73.4592 286.6798 15.48357647321841
STARLINK-1477,45754,53.0485,0.0003287,15.16236774,514.9598665271033,519.492878408164,1 45754U 20038AA  26102.86481320  .00020475  00000+0  10591-2 0  9996,2 45754  53.0485  57.4074 0003287  86.2168 273.9201 15.16236774321710
STARLINK-1478,45755,53.0487,0.0003348,15.61076432,382.282365084473,386.8106579637906,1 45755U 20038AB  26102.18096622  .00073253  00000+0  85206-3 0  9997,2 45755  53.0487  35.2185 0003348  62.9260 297.2094 15.61076432321950
STARLINK-1493,45759,53.0502,0.0004842,15.56401931,394.79940377486673,401.3614927517647,1 45759U 20038AF  26102.93994281  .00065458  00000+0  90963-3 0  9996,2 45759  53.0502  39.3665 0004842 124.9044 235.2422 15.56401931321967
STARLINK-1494,45760,53.0476,0.0004683,15.82410045,320.4889286711523,326.7658011753392,1 45760U 20038AG  26102.83081504  .00102289  00000+0  47989-3 0  9996,2 45760  53.0476 340.8702 0004683 144.7164 215.4169 15.82410045322781
STARLINK-1502,45764,53.0486,0.0006217,15.52815411,404.29114512810884,412.7296625100171,1 45764U 20038AL  26102.92802507  .00061917  00000+0  98141-3 0  9992,2 45764  53.0486  41.7871 0006217 113.3314 246.8350 15.52815411321944
STARLINK-1470,45772,53.0463,0.0003487,15.31217378,469.79033895327393,474.56774936246893,1 45772U 20038AU  26102.78371441  .00028159  00000+0  92941-3 0  9996,2 45772  53.0463  15.7036 0003487 121.1749 238.9593 15.31217378322292
STARLINK-1482,45773,53.1612,0.0003538,15.33235797,463.7441719021954,468.5872004829462,1 45773U 20038AV  26102.09477276  .00035543  00000+0  10975-2 0  9995,2 45773  53.1612  35.5588 0003538 118.4925 241.6434 15.33235797321969
STARLINK-1496,45780,53.05,5.02e-05,15.54475308,403.3378261281932,404.01872038162855,1 45780U 20038BC  26102.91878968  .00064988  00000+0  96983-3 0  9996,2 45780  53.0500  13.2846 0000502 207.6919 152.4064 15.54475308322320
STARLINK-1513,45786,53.1606,0.0001467,15.3019096,474.23667065443624,476.24745207103933,1 45786U 20038BJ  26102.52356005  .00000743  00000+0  37213-4 0  9993,2 45786  53.1606  33.9967 0001467  93.0418 267.0750 15.30190960322023
STARLINK-1522,46027,53.0645,0.0002242,15.10823107,532.1388242630483,535.2380867973079,1 46027U 20055A   26102.90350070  .00015900  00000+0  96122-3 0  9993,2 46027  53.0645 332.0915 0002242 149.6377 210.4745 15.10823107314058
STARLINK-1523,46028,53.1605,0.0001542,15.30192011,474.18213266971634,476.29571380444395,1 46028U 20055B   26102.81251899 -.00000059  00000+0  10132-4 0  9991,2 46028  53.1605 328.2094 0001542  74.5489 285.5682 15.30192011314129
STARLINK-1526,46029,53.1602,0.0001523,15.30186,474.21309932792974,476.30064310110265,1 46029U 20055C   26102.80619780 -.00003219  00000+0 -96643-4 0  9991,2 46029  53.1602 328.2467 0001523  96.7525 263.3649 15.30186000314114
STARLINK-1555,46032,53.1581,0.0001152,15.30202215,474.4189504400465,475.9979612330708,1 46032U 20055F   26102.92102757 -.00000819  00000+0 -15529-4 0  9996,2 46032  53.1581 327.6981 0001152  92.5538 267.5595 15.30202215314139
STARLINK-1556,46033,53.1569,0.0001278,15.29364713,476.83404361860266,478.58639816826326,1 46033U 20055G   26102.83818799  .00001526  00000+0  65183-4 0  9992,2 46033  53.1569 328.0894 0001278  89.5856 270.5290 15.29364713314093
STARLINK-1557,46034,53.157,0.0001272,15.2936313,476.84288738516625,478.5870161216926,1 46034U 20055H   26102.89730734  .00000145  00000+0  17367-4 0  9998,2 46034  53.1570 327.7162 0001272  79.2871 280.8273 15.29363130314106
STARLINK-1558,46035,53.1598,0.0001254,15.30178738,474.41913634337016,476.13797296447774,1 46035U 20055J   26102.91471733  .00001888  00000+0  75886-4 0  9998,2 46035  53.1598 327.7370 0001254  92.9477 267.1667 15.30178738314130
STARLINK-1560,46036,53.157,0.0001267,15.29362587,476.84793788503976,478.58521118082626,1 46036U 20055K   26102.89407404  .00000958  00000+0  45509-4 0  9996,2 46036  53.1570 327.7714 0001267  86.1909 273.9236 15.29362587314134
STARLINK-1567,46038,53.0858,5.88e-05,15.84604731,317.0442495888028,317.8316492028516,1 46038U 20055M   26102.99901394  .01336598  00000+0  50841-2 0  9992,2 46038  53.0858 321.6049 0000588 157.0142 203.0908 15.84604731314210
STARLINK-1569,46039,53.1579,7.14e-05,15.30191182,474.7520672866531,475.7307297219595,1 46039U 20055N   26102.91786371  .00001744  00000+0  70989-4 0  9999,2 46039  53.1579 327.7141 0000714  42.8923 317.2134 15.30191182314122
STARLINK-1582,46043,53.1616,0.0001489,15.30193299,474.2146103681407,476.25554457281123,1 46043U 20055S   26102.33635220 -.00001065  00000+0 -23829-4 0  9995,2 46043  53.1616 330.4099 0001489  84.9516 275.1654 15.30193299314037
STARLINK-1591,46045,53.1628,0.0001347,15.30197378,474.2997506715892,476.1460458281781,1 46045U 20055U   26102.81988974 -.00000506  00000+0 -49614-5 0  9997,2 46045  53.1628 328.1759 0001347  89.8814 270.2341 15.30197378314094
STARLINK-1524,46047,53.16,0.0001228,15.30194734,474.3891992262579,476.07238635616704,1 46047U 20055W   26102.87937711  .00002226  00000+0  87258-4 0  9992,2 46047  53.1600 315.0329 0001228  90.2530 269.8612 15.30194734314305
STARLINK-1527,46048,53.1621,0.0001443,15.30198404,474.2308954005257,476.20877418304644,1 46048U 20055X   26102.88571249  .00000153  00000+0  17297-4 0  9997,2 46048  53.1621 315.1026 0001443  90.0311 270.0855 15.30198404314286
